*******************************************************************************
JPL/HORIZONS               65803 Didymos (1996 GT)         2024-May-20 08:09:00
Rec #:   65803 (+COV) Soln.date: 2024-Mar-14_14:37:11   # obs: 5743 (1996-2023)
 
IAU76/J2000 helio. ecliptic osc. elements (au, days, deg., period=Julian yrs):
 
  EPOCH=  2459955.5 ! 2023-Jan-11.00 (TDB)         Residual RMS= .0025219
   EC= .383295687905634    QR= 1.012946023098609   TP= 2459874.290036167
   OM= 72.99227812907014   W=  319.5558136008571   IN= 3.414173528448404
   A= 1.642514902577187    MA= 38.0232655878875    ADIST= 2.272083782055765
   PER= 2.1051             N= .468209365           ANGMOM= .020362547
   DAN= 1.08477            DDN= 1.97827            L= 32.598334
   B= -2.2140388           MOID= .0400339          TP= 2022-Oct-21.7900361670
 
Asteroid physical parameters (km, seconds, rotational period in hours):
   GM= n.a.                RAD= .390               ROTPER= 2.2593
   H= 18.11                G= .150                 B-V= n.a.
                           ALBEDO= n.a.            STYP= Xk

Asteroid non-gravitational force model (AMRAT= m^2/kg;A1,A2,A3=au/d^2;R0=au):
   AMRAT=  0.
   A1= 0.                  A2= -1.036850335367E-14 A3= 0.
 Non-standard or simulated/proxy model:
   ALN=  1.            NK=  0.       NM=  2.       NN=  0.       R0=  1.

ASTEROID comments: 
1: soln ref.= JPL#208, PHA  OCC=0       radar( 9 delay, 0 Dop.)
2: source=ORB
*******************************************************************************


*******************************************************************************
Ephemeris / WWW_USER Mon May 20 08:09:01 2024 Pasadena, USA      / Horizons    
*******************************************************************************
Target body name: 65803 Didymos (1996 GT)         {source: JPL#208}
Center body name: Sun (10)                        {source: DE441}
Center-site name: BODYCENTRIC
*******************************************************************************
Start time      : A.D. 1900-Jan-01 00:00:00.0000 UT      
Stop  time      : A.D. 2200-Jan-01 00:00:00.0000 UT      
Step-size       : 1 calendar month
*******************************************************************************
Target pole/equ : IAU                             {East-longitude positive}
Target radii    : .3917, .3917, .2919 km          {Equator_a, b, pole_c}       
Center geodetic : 0.0, 0.0, -695700.0             {E-lon(deg),Lat(deg),Alt(km)}
Center cylindric: 0.0, 0.0, 0.0                   {E-lon(deg),Dxy(km),Dz(km)}
Center pole/equ : IAU_SUN                         {East-longitude positive}
Center radii    : 695700.0, 695700.0, 695700.0 km {Equator_a, b, pole_c}       
Target primary  : Sun
Vis. interferer : None
Rel. light bend : Sun                             {source: DE441}
Rel. lght bnd GM: 1.3271E+11 km^3/s^2                                          
Small-body perts: Yes                             {source: SB441-N16}
Atmos refraction: NO (AIRLESS)
RA format       : DEG
Time format     : CAL 
Calendar mode   : Mixed Julian/Gregorian
EOP file        : eop.240517.p240810                                           
EOP coverage    : DATA-BASED 1962-JAN-20 TO 2024-MAY-17. PREDICTS-> 2024-AUG-09
Units conversion: 1 au= 149597870.700 km, c= 299792.458 km/s, 1 day= 86400.0 s 
Table cut-offs 1: Elevation (-90.0deg=NO ),Airmass     n.a.    , Daylight (NO )
Table cut-offs 2: Solar elongation (  0.0,180.0=NO ),Local Hour Angle( 0.0=NO )
Table cut-offs 3: RA/DEC angular rate (     0.0=NO )                           
Table format    : Comma Separated Values (spreadsheet)
*******************************************************************************
Initial IAU76/J2000 heliocentric ecliptic osculating elements (au, days, deg.):
  EPOCH=  2459955.5 ! 2023-Jan-11.00 (TDB)         Residual RMS= .0025219      
   EC= .383295687905634    QR= 1.012946023098609   TP= 2459874.290036167       
   OM= 72.99227812907014   W=  319.5558136008571   IN= 3.414173528448404       
  Equivalent ICRF heliocentric cartesian coordinates (au, au/d):
   X=-4.399865302594494E-01  Y= 1.096410001157711E+00  Z= 5.258216715316988E-01
  VX=-1.662961356771949E-02 VY=-6.253505433846613E-04 VZ= 7.577449124181613E-04
Asteroid physical parameters (km, seconds, rotational period in hours):        
   GM= n.a.                RAD= .390               ROTPER= 2.2593              
   H= 18.11                G= .150                 B-V= n.a.                   
                           ALBEDO= n.a.            STYP= Xk                    
Asteroid non-gravitational force model (AMRAT= m^2/kg;A1,A2,A3=au/d^2;R0=au):  
   AMRAT=  0.                                                                  
   A1= 0.                  A2= -1.036850335367E-14 A3= 0.                      
 Non-standard or simulated/proxy model:                                        
   ALN=  1.            NK=  0.       NM=  2.       NN=  0.       R0=  1.       
*******************************************************************************
 Date__(UT)__HR:MN, , , hEcl-Lon,hEcl-Lat,      PlAng,  Tru_Anom,  App_Lon_Sun,
*******************************************************************************
$$SOE
 2070-Jul-01 00:00, , , 240.5537,  0.7026,   -0.00157,  207.7167,  192.1121135,
 2070-Aug-01 00:00, , , 248.9392,  0.2049,   -0.00149,  216.1137,  200.5118988,
 2070-Sep-01 00:00, , , 258.2130, -0.3503,   -0.00142,  225.4011,  209.8020187,
 2070-Oct-01 00:00, , , 268.3984, -0.9488,   -0.00134,  235.6011,  220.0040216,
 2070-Nov-01 00:00, , , 280.7285, -1.6314,   -0.00125,  247.9450,  232.3493806,
 2070-Dec-01 00:00, , , 295.2045, -2.3342,   -0.00115,  262.4277,  246.8331663,
 2071-Jan-01 00:00, , , 314.0233, -3.0202,   -0.00102,  281.2375,  265.6429866,
 2071-Feb-01 00:00, , , 338.3694, -3.4221,   -0.00082,  305.5487,  289.9526570,
 2071-Mar-01 00:00, , ,   5.9529, -3.1443,   -0.00056,  333.0887,  317.4908208,
 2071-Apr-01 00:00, , ,  40.6376, -1.8053,   -0.00019,    7.7669,  352.1670372,
 2071-May-01 00:00, , ,  72.8438,  0.0290,    0.00019,   40.0227,   24.4205614,
 2071-Jun-01 00:00, , , 100.3158,  1.6097,    0.00050,   67.5395,   51.9349214,
 2071-Jul-01 00:00, , , 121.0232,  2.5771,    0.00073,   88.2577,   72.6513681,
 2071-Aug-01 00:00, , , 137.8166,  3.1211,    0.00092,  105.0396,   89.4331141,
 2071-Sep-01 00:00, , , 151.3744,  3.3677,    0.00108,  118.5761,  102.9717333,
 2071-Oct-01 00:00, , , 162.3907,  3.4304,    0.00123,  129.5705,  113.9691075,
 2071-Nov-01 00:00, , , 172.2718,  3.3793,    0.00137,  139.4310,  123.8331492,
 2071-Dec-01 00:00, , , 180.8141,  3.2544,    0.00151,  147.9567,  132.3621632,
 2072-Jan-01 00:00, , , 188.9036,  3.0695,    0.00166,  156.0338,  140.4415914,
 2072-Feb-01 00:00, , , 196.4788,  2.8410,    0.00181,  163.6008,  148.0101675,
 2072-Mar-01 00:00, , , 203.2632,  2.5941,    0.00196,  170.3807,  154.7913731,
 2072-Apr-01 00:00, , , 210.3371,  2.2979,    0.00213,  177.4533,  161.8650487,
 2072-May-01 00:00, , , 217.1331,  1.9803,    0.00230,  184.2509,  168.6637479,
 2072-Jun-01 00:00, , , 224.2331,  1.6187,    0.00251,  191.3556,  175.7693266,
 2072-Jul-01 00:00, , , 231.3087,  1.2335,    0.00273,  198.4391,  182.8531265,
 2072-Aug-01 00:00, , , 238.9867,  0.7943,    0.00299,  206.1283,  190.5424402,
 2072-Sep-01 00:00, , , 247.2319,  0.3070,    0.00330,  214.3874,  198.8015061,
 2072-Oct-01 00:00, , , 255.9943, -0.2177,    0.00366,  223.1650,  207.5794221,
 2072-Nov-01 00:00, , , 266.2077, -0.8219,    0.00412,  233.3942,  217.8099251,
 2072-Dec-01 00:00, , , 277.6986, -1.4695,    0.00468,  244.8990,  229.3164695,
 2073-Jan-01 00:00, , , 291.9931, -2.1896,    0.00540,  259.2017,  243.6213707,
 2073-Feb-01 00:00, , , 309.9046, -2.8955,    0.00634,  277.1064,  261.5283979,
 2073-Mar-01 00:00, , , 330.5003, -3.3572,    0.00736,  297.6745,  282.0976763,
 2073-Apr-01 00:00, , , 359.4200, -3.2796,    0.00852,  326.5442,  310.9673841,
 2073-May-01 00:00, , ,  32.4445, -2.2025,    0.00920,  359.5468,  343.9698454,
 2073-Jun-01 00:00, , ,  66.5220, -0.3493,    0.00903,   33.6640,   18.0877651,
 2073-Jul-01 00:00, , ,  94.4763,  1.2928,    0.00830,   61.6634,   46.0890286,
 2073-Aug-01 00:00, , , 117.1119,  2.4165,    0.00746,   84.3139,   68.7411001,
 2073-Sep-01 00:00, , , 134.7237,  3.0396,    0.00675,  101.9178,   86.3445978,
 2073-Oct-01 00:00, , , 148.4266,  3.3294,    0.00623,  115.6057,  100.0300553,
 2073-Nov-01 00:00, , , 160.2282,  3.4277,    0.00582,  127.3912,  111.8121228,
 2073-Dec-01 00:00, , , 170.0701,  3.3991,    0.00553,  137.2200,  121.6371181,
 2074-Jan-01 00:00, , , 179.1018,  3.2849,    0.00530,  146.2410,  130.6545373,
 2074-Feb-01 00:00, , , 187.3229,  3.1101,    0.00514,  154.4540,  138.8649111,
 2074-Mar-01 00:00, , , 194.2635,  2.9127,    0.00504,  161.3898,  145.7989312,
 2074-Apr-01 00:00, , , 201.5907,  2.6579,    0.00497,  168.7145,  153.1219557,
 2074-May-01 00:00, , , 208.4694,  2.3792,    0.00494,  175.5937,  159.9996580,
 2074-Jun-01 00:00, , , 215.4941,  2.0590,    0.00494,  182.6224,  167.0263764,
 2074-Jul-01 00:00, , , 222.3349,  1.7175,    0.00498,  189.4700,  173.8719824,
 2074-Aug-01 00:00, , , 229.5809,  1.3290,    0.00506,  196.7256,  181.1257176,
 2074-Sep-01 00:00, , , 237.1585,  0.8999,    0.00518,  204.3153,  188.7139686,
 2074-Oct-01 00:00, , , 244.9824,  0.4405,    0.00535,  212.1528,  196.5506289,
 2074-Nov-01 00:00, , , 253.8082, -0.0873,    0.00558,  220.9952,  205.3920308,
 2074-Dec-01 00:00, , , 263.3738, -0.6565,    0.00589,  230.5788,  214.9741532,
 2075-Jan-01 00:00, , , 274.7782, -1.3099,    0.00631,  242.0022,  226.3952453,
 2075-Feb-01 00:00, , , 288.4279, -2.0214,    0.00687,  255.6673,  240.0573180,
 2075-Mar-01 00:00, , , 303.5653, -2.6749,    0.00752,  270.8085,  255.1956029,
 2075-Apr-01 00:00, , , 324.8038, -3.2707,    0.00840,  292.0281,  276.4128884,
 2075-May-01 00:00, , , 351.2450, -3.3888,    0.00926,  318.4240,  302.8082973,
 2075-Jun-01 00:00, , ,  24.4249, -2.5473,    0.00971,  351.5668,  335.9523999,
 2075-Jul-01 00:00, , ,  58.0176, -0.8500,    0.00927,   25.1843,    9.5717317,
 2075-Aug-01 00:00, , ,  88.4475,  0.9521,    0.00816,   55.6655,   40.0543205,
